NESS                    
1 58020U 23155E   26068.76452457  .00019469  00000+0  74047-3 0  9996
2 58020  97.5941 152.6141 0006891 179.8776 180.2465 15.26794015133307
STARLINK-34048          
1 63816U 25092N   26068.31506782  .00024390  00000+0  89272-3 0  9994
2 63816  42.9972 174.9792 0000770 251.6672 108.4096 15.27586411 48607
